{
  "type": "FeatureCollection",
  "features": [
    {
      "type": "Feature",
      "properties": {
        "norad_id": 67005,
        "name": "STARLINK-36148",
        "group": "last-30-days",
        "lat": 7.983018091080116,
        "lon": -75.44446770209382,
        "alt_km": 360.39999447454284,
        "timestamp": "2025-12-27T08:36:17.080285+00:00",
        "meta_object_name": "STARLINK-36148",
        "meta_object_id": "2025-293C",
        "meta_epoch": "2025-12-27T04:00:01.998720",
        "meta_mean_motion": 15.70762923,
        "meta_eccentricity": 0.0003785,
        "meta_inclination": 69.9981,
        "meta_ra_of_asc_node": 282.1668,
        "meta_arg_of_pericenter": 271.4179,
        "meta_mean_anomaly": 92.9112,
        "meta_ephemeris_type": 0,
        "meta_classification_type": "U",
        "meta_norad_cat_id": 67005,
        "meta_element_set_no": 999,
        "meta_rev_at_epoch": 248,
        "meta_bstar": -0.014642,
        "meta_mean_motion_dot": -0.01620616,
        "meta_mean_motion_ddot": 0,
        "tle_line1": "1 67005U 25293C   25361.16668980 -.01620616  00000+0 -14642-1 0  9991",
        "tle_line2": "2 67005  69.9981 282.1668 0003785 271.4179  92.9112 15.70762923  2489"
      },
      "geometry": {
        "type": "Point",
        "coordinates": [
          -75.44446770209382,
          7.983018091080116
        ]
      }
    },
    {
      "type": "Feature",
      "properties": {
        "norad_id": 67006,
        "name": "STARLINK-36156",
        "group": "last-30-days",
        "lat": 12.406780639476446,
        "lon": -73.782315189705,
        "alt_km": 360.05837251525554,
        "timestamp": "2025-12-27T08:36:17.080297+00:00",
        "meta_object_name": "STARLINK-36156",
        "meta_object_id": "2025-293D",
        "meta_epoch": "2025-12-27T04:00:01.998720",
        "meta_mean_motion": 15.70710749,
        "meta_eccentricity": 0.0003787,
        "meta_inclination": 69.9982,
        "meta_ra_of_asc_node": 282.1608,
        "meta_arg_of_pericenter": 272.152,
        "meta_mean_anomaly": 96.9286,
        "meta_ephemeris_type": 0,
        "meta_classification_type": "U",
        "meta_norad_cat_id": 67006,
        "meta_element_set_no": 999,
        "meta_rev_at_epoch": 248,
        "meta_bstar": -0.014637,
        "meta_mean_motion_dot": -0.01617004,
        "meta_mean_motion_ddot": 0,
        "tle_line1": "1 67006U 25293D   25361.16668980 -.01617004  00000+0 -14637-1 0  9993",
        "tle_line2": "2 67006  69.9982 282.1608 0003787 272.1520  96.9286 15.70710749  2480"
      },
      "geometry": {
        "type": "Point",
        "coordinates": [
          -73.782315189705,
          12.406780639476446
        ]
      }
    },
    {
      "type": "Feature",
      "properties": {
        "norad_id": 67007,
        "name": "STARLINK-36123",
        "group": "last-30-days",
        "lat": 10.31270698033244,
        "lon": -74.57617247464871,
        "alt_km": 360.28207542692235,
        "timestamp": "2025-12-27T08:36:17.080307+00:00",
        "meta_object_name": "STARLINK-36123",
        "meta_object_id": "2025-293E",
        "meta_epoch": "2025-12-27T04:00:01.998720",
        "meta_mean_motion": 15.70734994,
        "meta_eccentricity": 0.0003741,
        "meta_inclination": 69.9982,
        "meta_ra_of_asc_node": 282.1628,
        "meta_arg_of_pericenter": 270.6683,
        "meta_mean_anomaly": 96.1645,
        "meta_ephemeris_type": 0,
        "meta_classification_type": "U",
        "meta_norad_cat_id": 67007,
        "meta_element_set_no": 999,
        "meta_rev_at_epoch": 248,
        "meta_bstar": -0.014732,
        "meta_mean_motion_dot": -0.01627709,
        "meta_mean_motion_ddot": 0,
        "tle_line1": "1 67007U 25293E   25361.16668980 -.01627709  00000+0 -14732-1 0  9993",
        "tle_line2": "2 67007  69.9982 282.1628 0003741 270.6683  96.1645 15.70734994  2485"
      },
      "geometry": {
        "type": "Point",
        "coordinates": [
          -74.57617247464871,
          10.31270698033244
        ]
      }
    },
    {
      "type": "Feature",
      "properties": {
        "norad_id": 67008,
        "name": "STARLINK-36163",
        "group": "last-30-days",
        "lat": 14.846392863946933,
        "lon": -72.8410138687296,
        "alt_km": 360.09152563213866,
        "timestamp": "2025-12-27T08:36:17.080319+00:00",
        "meta_object_name": "STARLINK-36163",
        "meta_object_id": "2025-293F",
        "meta_epoch": "2025-12-27T04:00:01.998720",
        "meta_mean_motion": 15.70634119,
        "meta_eccentricity": 0.0003868,
        "meta_inclination": 69.9983,
        "meta_ra_of_asc_node": 282.1573,
        "meta_arg_of_pericenter": 269.4473,
        "meta_mean_anomaly": 102.2839,
        "meta_ephemeris_type": 0,
        "meta_classification_type": "U",
        "meta_norad_cat_id": 67008,
        "meta_element_set_no": 999,
        "meta_rev_at_epoch": 248,
        "meta_bstar": -0.014242,
        "meta_mean_motion_dot": -0.01573574,
        "meta_mean_motion_ddot": 0,
        "tle_line1": "1 67008U 25293F   25361.16668980 -.01573574  00000+0 -14242-1 0  9990",
        "tle_line2": "2 67008  69.9983 282.1573 0003868 269.4473 102.2839 15.70634119  2481"
      },
      "geometry": {
        "type": "Point",
        "coordinates": [
          -72.8410138687296,
          14.846392863946933
        ]
      }
    },
    {
      "type": "Feature",
      "properties": {
        "norad_id": 67009,
        "name": "STARLINK-36118",
        "group": "last-30-days",
        "lat": 17.003260996490276,
        "lon": -71.98878234798882,
        "alt_km": 359.6973700156004,
        "timestamp": "2025-12-27T08:36:17.080329+00:00",
        "meta_object_name": "STARLINK-36118",
        "meta_object_id": "2025-293G",
        "meta_epoch": "2025-12-27T04:00:01.998720",
        "meta_mean_motion": 15.70644285,
        "meta_eccentricity": 0.0003943,
        "meta_inclination": 69.9979,
        "meta_ra_of_asc_node": 282.155,
        "meta_arg_of_pericenter": 273.2091,
        "meta_mean_anomaly": 100.8233,
        "meta_ephemeris_type": 0,
        "meta_classification_type": "U",
        "meta_norad_cat_id": 67009,
        "meta_element_set_no": 999,
        "meta_rev_at_epoch": 242,
        "meta_bstar": -0.01443,
        "meta_mean_motion_dot": -0.01592776,
        "meta_mean_motion_ddot": 0,
        "tle_line1": "1 67009U 25293G   25361.16668980 -.01592776  00000+0 -14430-1 0  9995",
        "tle_line2": "2 67009  69.9979 282.1550 0003943 273.2091 100.8233 15.70644285  2426"
      },
      "geometry": {
        "type": "Point",
        "coordinates": [
          -71.98878234798882,
          17.003260996490276
        ]
      }
    },
    {
      "type": "Feature",
      "properties": {
        "norad_id": 67010,
        "name": "STARLINK-36189",
        "group": "last-30-days",
        "lat": 21.090859676516335,
        "lon": -70.31353043086544,
        "alt_km": 359.34870363212485,
        "timestamp": "2025-12-27T08:36:17.080339+00:00",
        "meta_object_name": "STARLINK-36189",
        "meta_object_id": "2025-293H",
        "meta_epoch": "2025-12-27T04:00:01.998720",
        "meta_mean_motion": 15.70617857,
        "meta_eccentricity": 0.0003538,
        "meta_inclination": 69.9981,
        "meta_ra_of_asc_node": 282.1494,
        "meta_arg_of_pericenter": 270.9235,
        "meta_mean_anomaly": 107.5192,
        "meta_ephemeris_type": 0,
        "meta_classification_type": "U",
        "meta_norad_cat_id": 67010,
        "meta_element_set_no": 999,
        "meta_rev_at_epoch": 248,
        "meta_bstar": -0.01473,
        "meta_mean_motion_dot": -0.01620242,
        "meta_mean_motion_ddot": 0,
        "tle_line1": "1 67010U 25293H   25361.16668980 -.01620242  00000+0 -14730-1 0  9990",
        "tle_line2": "2 67010  69.9981 282.1494 0003538 270.9235 107.5192 15.70617857  2481"
      },
      "geometry": {
        "type": "Point",
        "coordinates": [
          -70.31353043086544,
          21.090859676516335
        ]
      }
    },
    {
      "type": "Feature",
      "properties": {
        "norad_id": 67011,
        "name": "STARLINK-36167",
        "group": "last-30-days",
        "lat": 18.910237979328407,
        "lon": -71.21932112571204,
        "alt_km": 359.5868223902344,
        "timestamp": "2025-12-27T08:36:17.080348+00:00",
        "meta_object_name": "STARLINK-36167",
        "meta_object_id": "2025-293J",
        "meta_epoch": "2025-12-27T04:00:01.998720",
        "meta_mean_motion": 15.70629836,
        "meta_eccentricity": 0.0003932,
        "meta_inclination": 69.9976,
        "meta_ra_of_asc_node": 282.1512,
        "meta_arg_of_pericenter": 272.0655,
        "meta_mean_anomaly": 104.0212,
        "meta_ephemeris_type": 0,
        "meta_classification_type": "U",
        "meta_norad_cat_id": 67011,
        "meta_element_set_no": 999,
        "meta_rev_at_epoch": 242,
        "meta_bstar": -0.014521,
        "meta_mean_motion_dot": -0.01600799,
        "meta_mean_motion_ddot": 0,
        "tle_line1": "1 67011U 25293J   25361.16668980 -.01600799  00000+0 -14521-1 0  9994",
        "tle_line2": "2 67011  69.9976 282.1512 0003932 272.0655 104.0212 15.70629836  2423"
      },
      "geometry": {
        "type": "Point",
        "coordinates": [
          -71.21932112571204,
          18.910237979328407
        ]
      }
    }
  ]
}